ISS (ZARYA)             
1 25544U 98067A   25308.16441419  .00010829  00000+0  19922-3 0  9993
2 25544  51.6336 333.4485 0005035  15.3367 344.7773 15.49739341536874
CSS (TIANHE)            
1 48274U 21035A   25308.16010129  .00032649  00000+0  38953-3 0  9998
2 48274  41.4668 251.0039 0006377 319.7576  40.2790 15.60341380258005
ISS (NAUKA)             
1 49044U 21066A   25308.16441419  .00010829  00000+0  19922-3 0  9999
2 49044  51.6336 333.4485 0005035  15.3367 344.7773 15.49739341230449
FREGAT DEB              
1 49271U 11037PF  25308.18696032  .00003553  00000+0  76600-2 0  9994
2 49271  51.6272 313.4362 0887000 140.7270 226.1466 12.33798961197175
CSS (WENTIAN)           
1 53239U 22085A   25308.16010129  .00032649  00000+0  38953-3 0  9991
2 53239  41.4668 251.0039 0006377 319.7576  40.2790 15.60341380173840
CSS (MENGTIAN)          
1 54216U 22143A   25308.16010129  .00032649  00000+0  38953-3 0  9992
2 54216  41.4668 251.0039 0006377 319.7576  40.2790 15.60341380158647
SOYUZ-MS 27             
1 63520U 25072A   25308.16441419  .00010829  00000+0  19922-3 0  9995
2 63520  51.6336 333.4485 0005035  15.3367 344.7773 15.49739341 20205
SHENZHOU-20 (SZ-20)     
1 63632U 25082A   25308.16010129  .00032649  00000+0  38953-3 0  9999
2 63632  41.4668 251.0039 0006377 319.7576  40.2790 15.60341380255300
PROGRESS-MS 31          
1 64751U 25146A   25308.16441419  .00010829  00000+0  19922-3 0  9994
2 64751  51.6336 333.4485 0005035  15.3367 344.7773 15.49739341  6756
TIANZHOU-9              
1 64786U 25149A   25308.16010129  .00032649  00000+0  38953-3 0  9994
2 64786  41.4668 251.0039 0006377 319.7576  40.2790 15.60341380255301
CREW DRAGON 11          
1 65077U 25166A   25308.16441419  .00010829  00000+0  19922-3 0  9998
2 65077  51.6336 333.4485 0005035  15.3367 344.7773 15.49739341  2147
DRAGON CRS-33           
1 65304U 25186A   25308.16441419  .00010829  00000+0  19922-3 0  9993
2 65304  51.6336 333.4485 0005035  15.3367 344.7773 15.49739341   115
